start=new Date('2021-09-30T00:00:00.000Z').valueOf();
sats=[{"INCLINATION":"53.0569","ECCENTRICITY":"0.00011320","OBJECT_TYPE":"PAYLOAD","MEAN_MOTION":"15.06409121","TIME_SYSTEM":"UTC","REV_AT_EPOCH":"3193","GP_ID":"185792174","CLASSIFICATION_TYPE":"U","ARG_OF_PERICENTER":"93.4826","ELEMENT_SET_NO":"999","MEAN_MOTION_DDOT":"0.0000000000000","BSTAR":"0.00015042000000","EPHEMERIS_TYPE":"0","LAUNCH_DATE":"2021-03-11","PERIOD":"95.592","OBJECT_ID":"2021-018AT","MEAN_ANOMALY":"266.6292","NORAD_CAT_ID":"47828","COUNTRY_CODE":"US","RCS_SIZE":"LARGE","MEAN_MOTION_DOT":"0.00001960","TLE_LINE1":"1 47828U 21018AT  21272.34106740  .00001960  00000-0  15042-3 0  9991","FILE":"3134986","MEAN_ELEMENT_THEORY":"SGP4","OBJECT_NAME":"STARLINK-2415","REF_FRAME":"TEME","CENTER_NAME":"EARTH","SITE":"AFETR","EPOCH":"2021-09-29T08:11:08.223360","APOAPSIS":"547.970","TLE_LINE2":"2 47828  53.0569 344.6210 0001132  93.4826 266.6292 15.06409121 31936","RA_OF_ASC_NODE":"344.6210","DECAY_DATE":null,"SEMIMAJOR_AXIS":"6925.321","PERIAPSIS":"546.402"},{"RA_OF_ASC_NODE":"344.5429","SEMIMAJOR_AXIS":"6925.369","DECAY_DATE":null,"PERIAPSIS":"546.463","CENTER_NAME":"EARTH","SITE":"AFETR","EPOCH":"2021-09-29T08:37:41.571552","APOAPSIS":"548.006","TLE_LINE2":"2 47829  53.0569 344.5429 0001114 100.1168 259.9947 15.06393280 31922","TLE_LINE1":"1 47829U 21018AU  21272.35950893  .00000023  00000-0  20466-4 0  9995","FILE":"3134986","MEAN_ELEMENT_THEORY":"SGP4","OBJECT_NAME":"STARLINK-2416","REF_FRAME":"TEME","MEAN_MOTION_DOT":"0.00000023","LAUNCH_DATE":"2021-03-11","PERIOD":"95.593","OBJECT_ID":"2021-018AU","NORAD_CAT_ID":"47829","MEAN_ANOMALY":"259.9947","COUNTRY_CODE":"US","RCS_SIZE":"LARGE","CLASSIFICATION_TYPE":"U","ARG_OF_PERICENTER":"100.1168","MEAN_MOTION_DDOT":"0.0000000000000","ELEMENT_SET_NO":"999","BSTAR":"0.00002046600000","EPHEMERIS_TYPE":"0","OBJECT_TYPE":"PAYLOAD","MEAN_MOTION":"15.06393280","TIME_SYSTEM":"UTC","REV_AT_EPOCH":"3192","GP_ID":"185792426","INCLINATION":"53.0569","ECCENTRICITY":"0.00011140"},{"TIME_SYSTEM":"UTC","REV_AT_EPOCH":"3192","GP_ID":"185793176","OBJECT_TYPE":"PAYLOAD","MEAN_MOTION":"15.06400608","ECCENTRICITY":"0.00013240","INCLINATION":"53.0578","COUNTRY_CODE":"US","RCS_SIZE":"LARGE","LAUNCH_DATE":"2021-03-11","PERIOD":"95.592","OBJECT_ID":"2021-018AV","NORAD_CAT_ID":"47830","MEAN_ANOMALY":"265.9583","MEAN_MOTION_DDOT":"0.0000000000000","ELEMENT_SET_NO":"999","BSTAR":"0.00011212000000","EPHEMERIS_TYPE":"0","CLASSIFICATION_TYPE":"U","ARG_OF_PERICENTER":"94.1558","REF_FRAME":"TEME","TLE_LINE1":"1 47830U 21018AV  21272.35580635  .00001389  00000-0  11212-3 0  9994","MEAN_ELEMENT_THEORY":"SGP4","FILE":"3134986","OBJECT_NAME":"STARLINK-2419","MEAN_MOTION_DOT":"0.00001389","RA_OF_ASC_NODE":"344.5551","PERIAPSIS":"546.295","DECAY_DATE":null,"SEMIMAJOR_AXIS":"6925.347","TLE_LINE2":"2 47830  53.0578 344.5551 0001324  94.1558 265.9583 15.06400608 31924","CENTER_NAME":"EARTH","SITE":"AFETR","EPOCH":"2021-09-29T08:32:21.668640","APOAPSIS":"548.129"},{"REF_FRAME":"TEME","FILE":"3134986","MEAN_ELEMENT_THEORY":"SGP4","OBJECT_NAME":"STARLINK-2420","TLE_LINE1":"1 47831U 21018AW  21272.42904558  .00000166  00000-0  30015-4 0  9992","MEAN_MOTION_DOT":"0.00000166","PERIAPSIS":"546.653","DECAY_DATE":null,"SEMIMAJOR_AXIS":"6925.340","RA_OF_ASC_NODE":"319.2245","TLE_LINE2":"2 47831  53.0527 319.2245 0000798 100.4401 259.6678 15.06402745 32346","EPOCH":"2021-09-29T10:17:49.538112","SITE":"AFETR","APOAPSIS":"547.758","CENTER_NAME":"EARTH","GP_ID":"185791924","REV_AT_EPOCH":"3234","TIME_SYSTEM":"UTC","OBJECT_TYPE":"PAYLOAD","MEAN_MOTION":"15.06402745","ECCENTRICITY":"0.00007980","INCLINATION":"53.0527","RCS_SIZE":"LARGE","COUNTRY_CODE":"US","OBJECT_ID":"2021-018AW","MEAN_ANOMALY":"259.6678","NORAD_CAT_ID":"47831","LAUNCH_DATE":"2021-03-11","PERIOD":"95.592","EPHEMERIS_TYPE":"0","MEAN_MOTION_DDOT":"0.0000000000000","ELEMENT_SET_NO":"999","BSTAR":"0.00003001500000","ARG_OF_PERICENTER":"100.4401","CLASSIFICATION_TYPE":"U"},{"ECCENTRICITY":"0.00012650","INCLINATION":"53.0568","GP_ID":"185791675","REV_AT_EPOCH":"3208","TIME_SYSTEM":"UTC","MEAN_MOTION":"15.06397074","OBJECT_TYPE":"PAYLOAD","EPHEMERIS_TYPE":"0","BSTAR":"0.00004114200000","MEAN_MOTION_DDOT":"0.0000000000000","ELEMENT_SET_NO":"999","ARG_OF_PERICENTER":"91.8634","CLASSIFICATION_TYPE":"U","RCS_SIZE":"LARGE","COUNTRY_CODE":"US","NORAD_CAT_ID":"47832","MEAN_ANOMALY":"268.2499","OBJECT_ID":"2021-018AX","PERIOD":"95.592","LAUNCH_DATE":"2021-03-11","MEAN_MOTION_DOT":"0.00000331","REF_FRAME":"TEME","FILE":"3134986","OBJECT_NAME":"STARLINK-2422","MEAN_ELEMENT_THEORY":"SGP4","TLE_LINE1":"1 47832U 21018AX  21272.44519700  .00000331  00000-0  41142-4 0  9993","TLE_LINE2":"2 47832  53.0568 334.1549 0001265  91.8634 268.2499 15.06397074 32082","APOAPSIS":"548.099","SITE":"AFETR","EPOCH":"2021-09-29T10:41:05.020800","CENTER_NAME":"EARTH","PERIAPSIS":"546.346","DECAY_DATE":null,"SEMIMAJOR_AXIS":"6925.358","RA_OF_ASC_NODE":"334.1549"},{"RA_OF_ASC_NODE":"332.5494","SEMIMAJOR_AXIS":"6925.335","DECAY_DATE":null,"PERIAPSIS":"546.478","CENTER_NAME":"EARTH","SITE":"AFETR","EPOCH":"2021-09-29T19:15:56.192544","APOAPSIS":"547.921","TLE_LINE2":"2 47833  53.0558 332.5494 0001042  88.0138 272.0971 15.06404466 31804","TLE_LINE1":"1 47833U 21018AY  21272.80273371  .00001306  00000-0  10652-3 0  9999","FILE":"3135250","MEAN_ELEMENT_THEORY":"SGP4","OBJECT_NAME":"STARLINK-2423","REF_FRAME":"TEME","MEAN_MOTION_DOT":"0.00001306","LAUNCH_DATE":"2021-03-11","PERIOD":"95.592","OBJECT_ID":"2021-018AY","NORAD_CAT_ID":"47833","MEAN_ANOMALY":"272.0971","COUNTRY_CODE":"US","RCS_SIZE":"LARGE","CLASSIFICATION_TYPE":"U","ARG_OF_PERICENTER":"88.0138","ELEMENT_SET_NO":"999","MEAN_MOTION_DDOT":"0.0000000000000","BSTAR":"0.00010652000000","EPHEMERIS_TYPE":"0","OBJECT_TYPE":"PAYLOAD","MEAN_MOTION":"15.06404466","REV_AT_EPOCH":"3180","TIME_SYSTEM":"UTC","GP_ID":"185800107","INCLINATION":"53.0558","ECCENTRICITY":"0.00010420"},{"MEAN_MOTION":"15.06392533","OBJECT_TYPE":"PAYLOAD","TIME_SYSTEM":"UTC","REV_AT_EPOCH":"3175","GP_ID":"185803382","INCLINATION":"53.0566","ECCENTRICITY":"0.00012910","PERIOD":"95.593","LAUNCH_DATE":"2021-03-11","NORAD_CAT_ID":"47834","MEAN_ANOMALY":"266.6577","OBJECT_ID":"2021-018AZ","COUNTRY_CODE":"US","RCS_SIZE":"LARGE","CLASSIFICATION_TYPE":"U","ARG_OF_PERICENTER":"93.4559","BSTAR":"0.00003630800000","ELEMENT_SET_NO":"999","MEAN_MOTION_DDOT":"0.0000000000000","EPHEMERIS_TYPE":"0","TLE_LINE1":"1 47834U 21018AZ  21272.48206089  .00000259  00000-0  36308-4 0  9999","FILE":"3135437","OBJECT_NAME":"STARLINK-2424","MEAN_ELEMENT_THEORY":"SGP4","REF_FRAME":"TEME","MEAN_MOTION_DOT":"0.00000259","RA_OF_ASC_NODE":"333.9867","SEMIMAJOR_AXIS":"6925.371","DECAY_DATE":null,"PERIAPSIS":"546.342","CENTER_NAME":"EARTH","APOAPSIS":"548.131","EPOCH":"2021-09-29T11:34:10.060896","SITE":"AFETR","TLE_LINE2":"2 47834  53.0566 333.9867 0001291  93.4559 266.6577 15.06392533 31752"},{"MEAN_MOTION":"15.06393063","OBJECT_TYPE":"PAYLOAD","REV_AT_EPOCH":"3197","TIME_SYSTEM":"UTC","GP_ID":"185791425","INCLINATION":"53.0557","ECCENTRICITY":"0.00010170","PERIOD":"95.593","LAUNCH_DATE":"2021-03-11","NORAD_CAT_ID":"47835","MEAN_ANOMALY":"270.2878","OBJECT_ID":"2021-018BA","COUNTRY_CODE":"US","RCS_SIZE":"LARGE","CLASSIFICATION_TYPE":"U","ARG_OF_PERICENTER":"89.8227","BSTAR":"0.00003282400000","MEAN_MOTION_DDOT":"0.0000000000000","ELEMENT_SET_NO":"999","EPHEMERIS_TYPE":"0","TLE_LINE1":"1 47835U 21018BA  21272.23184553  .00000208  00000-0  32824-4 0  9997","FILE":"3134986","OBJECT_NAME":"STARLINK-2425","MEAN_ELEMENT_THEORY":"SGP4","REF_FRAME":"TEME","MEAN_MOTION_DOT":"0.00000208","RA_OF_ASC_NODE":"340.1407","DECAY_DATE":null,"PERIAPSIS":"546.531","SEMIMAJOR_AXIS":"6925.370","CENTER_NAME":"EARTH","APOAPSIS":"547.939","EPOCH":"2021-09-29T05:33:51.453792","SITE":"AFETR","TLE_LINE2":"2 47835  53.0557 340.1407 0001017  89.8227 270.2878 15.06393063 31978"},{"FILE":"3135251","MEAN_ELEMENT_THEORY":"SGP4","OBJECT_NAME":"STARLINK-2426","TLE_LINE1":"1 47836U 21018BB  21272.82391380  .00006267  00000-0  43939-3 0  9990","REF_FRAME":"TEME","MEAN_MOTION_DOT":"0.00006267","SEMIMAJOR_AXIS":"6925.391","DECAY_DATE":null,"PERIAPSIS":"546.376","RA_OF_ASC_NODE":"332.4437","APOAPSIS":"548.135","SITE":"AFETR","EPOCH":"2021-09-29T19:46:26.152320","CENTER_NAME":"EARTH","TLE_LINE2":"2 47836  53.0553 332.4437 0001270  85.2725 274.8409 15.06386274 31804","MEAN_MOTION":"15.06386274","OBJECT_TYPE":"PAYLOAD","GP_ID":"185799627","REV_AT_EPOCH":"3180","TIME_SYSTEM":"UTC","INCLINATION":"53.0553","ECCENTRICITY":"0.00012700","MEAN_ANOMALY":"274.8409","NORAD_CAT_ID":"47836","OBJECT_ID":"2021-018BB","PERIOD":"95.593","LAUNCH_DATE":"2021-03-11","RCS_SIZE":"LARGE","COUNTRY_CODE":"US","ARG_OF_PERICENTER":"85.2725","CLASSIFICATION_TYPE":"U","EPHEMERIS_TYPE":"0","BSTAR":"0.00043939000000","ELEMENT_SET_NO":"999","MEAN_MOTION_DDOT":"0.0000000000000"},{"TIME_SYSTEM":"UTC","REV_AT_EPOCH":"3236","GP_ID":"185792427","OBJECT_TYPE":"PAYLOAD","MEAN_MOTION":"15.06395107","ECCENTRICITY":"0.00012200","INCLINATION":"53.0572","COUNTRY_CODE":"US","RCS_SIZE":"LARGE","LAUNCH_DATE":"2021-03-11","PERIOD":"95.592","OBJECT_ID":"2021-018BC","NORAD_CAT_ID":"47837","MEAN_ANOMALY":"269.2071","ELEMENT_SET_NO":"999","MEAN_MOTION_DDOT":"0.0000000000000","BSTAR":"0.00009615100000","EPHEMERIS_TYPE":"0","CLASSIFICATION_TYPE":"U","ARG_OF_PERICENTER":"90.9057","REF_FRAME":"TEME","TLE_LINE1":"1 47837U 21018BC  21272.37701788  .00001151  00000-0  96151-4 0  9990","FILE":"3134986","OBJECT_NAME":"STARLINK-2427","MEAN_ELEMENT_THEORY":"SGP4","MEAN_MOTION_DOT":"0.00001151","RA_OF_ASC_NODE":"314.4556","DECAY_DATE":null,"SEMIMAJOR_AXIS":"6925.364","PERIAPSIS":"546.384","TLE_LINE2":"2 47837  53.0572 314.4556 0001220  90.9057 269.2071 15.06395107 32364","CENTER_NAME":"EARTH","EPOCH":"2021-09-29T09:02:54.344832","SITE":"AFETR","APOAPSIS":"548.073"}];
